[
  {
    "OBJECT_NAME": "STARLINK-3741",
    "OBJECT_ID": "22052X",
    "EPOCH": "2025-11-11T05:42:32.844096",
    "MEAN_MOTION": 15.08826872,
    "ECCENTRICITY": 0.0001326,
    "INCLINATION": 53.2165,
    "RA_OF_ASC_NODE": 80.8599,
    "ARG_OF_PERICENTER": 95.8239,
    "MEAN_ANOMALY": 264.2905,
    "EPHEMERIS_TYPE": 0,
    "CLASSIFICATION_TYPE": "U",
    "NORAD_CAT_ID": 52619,
    "ELEMENT_SET_NO": 999,
    "REV_AT_EPOCH": 19310,
    "BSTAR": 0.00013077,
    "MEAN_MOTION_DOT": 1.793e-05,
    "MEAN_MOTION_DDOT": 0.0,
    "TLE_LINE1": "1 52619U 22052X   25315.23788014  .00001793  00000+0  13077-3 0  9993",
    "TLE_LINE2": "2 52619  53.2165  80.8599 0001326  95.8239 264.2905 15.08826872193103",
    "COMMENT": "Grouped by shell and plane from TLE"
  },
  {
    "OBJECT_NAME": "STARLINK-3984",
    "OBJECT_ID": "22052Z",
    "EPOCH": "2025-11-10T15:13:28.482816",
    "MEAN_MOTION": 15.08841758,
    "ECCENTRICITY": 0.0001317,
    "INCLINATION": 53.2158,
    "RA_OF_ASC_NODE": 83.5789,
    "ARG_OF_PERICENTER": 85.7473,
    "MEAN_ANOMALY": 274.367,
    "EPHEMERIS_TYPE": 0,
    "CLASSIFICATION_TYPE": "U",
    "NORAD_CAT_ID": 52621,
    "ELEMENT_SET_NO": 999,
    "REV_AT_EPOCH": 19301,
    "BSTAR": 9.8961e-05,
    "MEAN_MOTION_DOT": 1.287e-05,
    "MEAN_MOTION_DDOT": 0.0,
    "TLE_LINE1": "1 52621U 22052Z   25314.63435744  .00001287  00000+0  98961-4 0  9992",
    "TLE_LINE2": "2 52621  53.2158  83.5789 0001317  85.7473 274.3670 15.08841758193018",
    "COMMENT": "Grouped by shell and plane from TLE"
  },
  {
    "OBJECT_NAME": "STARLINK-3986",
    "OBJECT_ID": "22052AB",
    "EPOCH": "2025-11-11T02:15:52.413696",
    "MEAN_MOTION": 15.08846211,
    "ECCENTRICITY": 0.0001527,
    "INCLINATION": 53.216,
    "RA_OF_ASC_NODE": 81.5149,
    "ARG_OF_PERICENTER": 84.343,
    "MEAN_ANOMALY": 275.7737,
    "EPHEMERIS_TYPE": 0,
    "CLASSIFICATION_TYPE": "U",
    "NORAD_CAT_ID": 52623,
    "ELEMENT_SET_NO": 999,
    "REV_AT_EPOCH": 19308,
    "BSTAR": 0.0,
    "MEAN_MOTION_DOT": -3.55e-06,
    "MEAN_MOTION_DDOT": 0.0,
    "TLE_LINE1": "1 52623U 22052AB  25315.09435664 -.00000355  00000+0 -42098-5 0  9994",
    "TLE_LINE2": "2 52623  53.2160  81.5149 0001527  84.3430 275.7737 15.08846211193087",
    "COMMENT": "Grouped by shell and plane from TLE"
  },
  {
    "OBJECT_NAME": "STARLINK-3988",
    "OBJECT_ID": "22052AD",
    "EPOCH": "2025-11-11T02:10:34.412448",
    "MEAN_MOTION": 15.08843831,
    "ECCENTRICITY": 0.0001345,
    "INCLINATION": 53.215,
    "RA_OF_ASC_NODE": 81.5316,
    "ARG_OF_PERICENTER": 91.8052,
    "MEAN_ANOMALY": 268.3094,
    "EPHEMERIS_TYPE": 0,
    "CLASSIFICATION_TYPE": "U",
    "NORAD_CAT_ID": 52625,
    "ELEMENT_SET_NO": 999,
    "REV_AT_EPOCH": 19308,
    "BSTAR": 4.6147000000000004e-05,
    "MEAN_MOTION_DOT": 4.47e-06,
    "MEAN_MOTION_DDOT": 0.0,
    "TLE_LINE1": "1 52625U 22052AD  25315.09067607  .00000447  00000+0  46147-4 0  9992",
    "TLE_LINE2": "2 52625  53.2150  81.5316 0001345  91.8052 268.3094 15.08843831193084",
    "COMMENT": "Grouped by shell and plane from TLE"
  },
  {
    "OBJECT_NAME": "STARLINK-3990",
    "OBJECT_ID": "22052AE",
    "EPOCH": "2025-11-10T18:29:33.083520",
    "MEAN_MOTION": 15.08838401,
    "ECCENTRICITY": 0.0002308,
    "INCLINATION": 53.2108,
    "RA_OF_ASC_NODE": 82.9674,
    "ARG_OF_PERICENTER": 89.7426,
    "MEAN_ANOMALY": 270.383,
    "EPHEMERIS_TYPE": 0,
    "CLASSIFICATION_TYPE": "U",
    "NORAD_CAT_ID": 52626,
    "ELEMENT_SET_NO": 999,
    "REV_AT_EPOCH": 19303,
    "BSTAR": 0.00031467,
    "MEAN_MOTION_DOT": 4.723e-05,
    "MEAN_MOTION_DDOT": 0.0,
    "TLE_LINE1": "1 52626U 22052AE  25314.77052180  .00004723  00000+0  31467-3 0  9996",
    "TLE_LINE2": "2 52626  53.2108  82.9674 0002308  89.7426 270.3830 15.08838401193034",
    "COMMENT": "Grouped by shell and plane from TLE"
  },
  {
    "OBJECT_NAME": "STARLINK-3992",
    "OBJECT_ID": "22052AF",
    "EPOCH": "2025-11-11T01:54:40.824288",
    "MEAN_MOTION": 15.08845365,
    "ECCENTRICITY": 0.0001056,
    "INCLINATION": 53.2178,
    "RA_OF_ASC_NODE": 81.5809,
    "ARG_OF_PERICENTER": 84.547,
    "MEAN_ANOMALY": 275.5643,
    "EPHEMERIS_TYPE": 0,
    "CLASSIFICATION_TYPE": "U",
    "NORAD_CAT_ID": 52627,
    "ELEMENT_SET_NO": 999,
    "REV_AT_EPOCH": 19309,
    "BSTAR": 0.00016892,
    "MEAN_MOTION_DOT": 2.402e-05,
    "MEAN_MOTION_DDOT": 0.0,
    "TLE_LINE1": "1 52627U 22052AF  25315.07963917  .00002402  00000+0  16892-3 0  9997",
    "TLE_LINE2": "2 52627  53.2178  81.5809 0001056  84.5470 275.5643 15.08845365193090",
    "COMMENT": "Grouped by shell and plane from TLE"
  },
  {
    "OBJECT_NAME": "STARLINK-4022",
    "OBJECT_ID": "22052AH",
    "EPOCH": "2025-11-11T01:44:04.076160",
    "MEAN_MOTION": 15.08851699,
    "ECCENTRICITY": 0.0001545,
    "INCLINATION": 53.2185,
    "RA_OF_ASC_NODE": 81.5756,
    "ARG_OF_PERICENTER": 92.2629,
    "MEAN_ANOMALY": 267.8541,
    "EPHEMERIS_TYPE": 0,
    "CLASSIFICATION_TYPE": "U",
    "NORAD_CAT_ID": 52629,
    "ELEMENT_SET_NO": 999,
    "REV_AT_EPOCH": 19308,
    "BSTAR": 0.0,
    "MEAN_MOTION_DOT": -5.06e-06,
    "MEAN_MOTION_DDOT": 0.0,
    "TLE_LINE1": "1 52629U 22052AH  25315.07226940 -.00000506  00000+0 -13671-4 0  9995",
    "TLE_LINE2": "2 52629  53.2185  81.5756 0001545  92.2629 267.8541 15.08851699193083",
    "COMMENT": "Grouped by shell and plane from TLE"
  },
  {
    "OBJECT_NAME": "STARLINK-3989",
    "OBJECT_ID": "22052AJ",
    "EPOCH": "2025-11-11T02:05:17.019456",
    "MEAN_MOTION": 15.08850412,
    "ECCENTRICITY": 0.0001296,
    "INCLINATION": 53.2161,
    "RA_OF_ASC_NODE": 81.5498,
    "ARG_OF_PERICENTER": 85.8452,
    "MEAN_ANOMALY": 274.2688,
    "EPHEMERIS_TYPE": 0,
    "CLASSIFICATION_TYPE": "U",
    "NORAD_CAT_ID": 52630,
    "ELEMENT_SET_NO": 999,
    "REV_AT_EPOCH": 19308,
    "BSTAR": 0.00018162,
    "MEAN_MOTION_DOT": 2.605e-05,
    "MEAN_MOTION_DDOT": 0.0,
    "TLE_LINE1": "1 52630U 22052AJ  25315.08700254  .00002605  00000+0  18162-3 0  9992",
    "TLE_LINE2": "2 52630  53.2161  81.5498 0001296  85.8452 274.2688 15.08850412193083",
    "COMMENT": "Grouped by shell and plane from TLE"
  },
  {
    "OBJECT_NAME": "STARLINK-3794",
    "OBJECT_ID": "22052AK",
    "EPOCH": "2025-11-11T01:45:29.332224",
    "MEAN_MOTION": 15.08821913,
    "ECCENTRICITY": 0.0001178,
    "INCLINATION": 53.2191,
    "RA_OF_ASC_NODE": 81.6196,
    "ARG_OF_PERICENTER": 64.1388,
    "MEAN_ANOMALY": 295.9725,
    "EPHEMERIS_TYPE": 0,
    "CLASSIFICATION_TYPE": "U",
    "NORAD_CAT_ID": 52631,
    "ELEMENT_SET_NO": 999,
    "REV_AT_EPOCH": 19309,
    "BSTAR": 0.00013484,
    "MEAN_MOTION_DOT": 1.858e-05,
    "MEAN_MOTION_DDOT": 0.0,
    "TLE_LINE1": "1 52631U 22052AK  25315.07325616  .00001858  00000+0  13484-3 0  9998",
    "TLE_LINE2": "2 52631  53.2191  81.6196 0001178  64.1388 295.9725 15.08821913193097",
    "COMMENT": "Grouped by shell and plane from TLE"
  },
  {
    "OBJECT_NAME": "STARLINK-3995",
    "OBJECT_ID": "22052AL",
    "EPOCH": "2025-11-11T01:59:58.272576",
    "MEAN_MOTION": 15.08846802,
    "ECCENTRICITY": 0.0001213,
    "INCLINATION": 53.2167,
    "RA_OF_ASC_NODE": 81.5652,
    "ARG_OF_PERICENTER": 86.924,
    "MEAN_ANOMALY": 273.1891,
    "EPHEMERIS_TYPE": 0,
    "CLASSIFICATION_TYPE": "U",
    "NORAD_CAT_ID": 52632,
    "ELEMENT_SET_NO": 999,
    "REV_AT_EPOCH": 19309,
    "BSTAR": 7.335000000000001e-05,
    "MEAN_MOTION_DOT": 8.8e-06,
    "MEAN_MOTION_DDOT": 0.0,
    "TLE_LINE1": "1 52632U 22052AL  25315.08331334  .00000880  00000+0  73350-4 0  9997",
    "TLE_LINE2": "2 52632  53.2167  81.5652 0001213  86.9240 273.1891 15.08846802193092",
    "COMMENT": "Grouped by shell and plane from TLE"
  },
  {
    "OBJECT_NAME": "STARLINK-3994",
    "OBJECT_ID": "22052AM",
    "EPOCH": "2025-11-11T07:49:43.411296",
    "MEAN_MOTION": 15.0884084,
    "ECCENTRICITY": 0.00013,
    "INCLINATION": 53.2151,
    "RA_OF_ASC_NODE": 80.4721,
    "ARG_OF_PERICENTER": 92.1798,
    "MEAN_ANOMALY": 267.9343,
    "EPHEMERIS_TYPE": 0,
    "CLASSIFICATION_TYPE": "U",
    "NORAD_CAT_ID": 52633,
    "ELEMENT_SET_NO": 999,
    "REV_AT_EPOCH": 19313,
    "BSTAR": 5.075300000000001e-05,
    "MEAN_MOTION_DOT": 5.2e-06,
    "MEAN_MOTION_DDOT": 0.0,
    "TLE_LINE1": "1 52633U 22052AM  25315.32619689  .00000520  00000+0  50753-4 0  9990",
    "TLE_LINE2": "2 52633  53.2151  80.4721 0001300  92.1798 267.9343 15.08840840193139",
    "COMMENT": "Grouped by shell and plane from TLE"
  },
  {
    "OBJECT_NAME": "STARLINK-3974",
    "OBJECT_ID": "22052AN",
    "EPOCH": "2025-11-11T01:49:22.964736",
    "MEAN_MOTION": 15.0884515,
    "ECCENTRICITY": 0.0001371,
    "INCLINATION": 53.2173,
    "RA_OF_ASC_NODE": 81.625,
    "ARG_OF_PERICENTER": 80.2806,
    "MEAN_ANOMALY": 279.8341,
    "EPHEMERIS_TYPE": 0,
    "CLASSIFICATION_TYPE": "U",
    "NORAD_CAT_ID": 52634,
    "ELEMENT_SET_NO": 999,
    "REV_AT_EPOCH": 19308,
    "BSTAR": 6.8446e-05,
    "MEAN_MOTION_DOT": 8.02e-06,
    "MEAN_MOTION_DDOT": 0.0,
    "TLE_LINE1": "1 52634U 22052AN  25315.07596024  .00000802  00000+0  68446-4 0  9991",
    "TLE_LINE2": "2 52634  53.2173  81.6250 0001371  80.2806 279.8341 15.08845150193083",
    "COMMENT": "Grouped by shell and plane from TLE"
  },
  {
    "OBJECT_NAME": "STARLINK-3967",
    "OBJECT_ID": "22052AQ",
    "EPOCH": "2025-11-10T08:09:32.588928",
    "MEAN_MOTION": 15.08839052,
    "ECCENTRICITY": 0.000175,
    "INCLINATION": 53.2153,
    "RA_OF_ASC_NODE": 84.8996,
    "ARG_OF_PERICENTER": 90.4227,
    "MEAN_ANOMALY": 269.6965,
    "EPHEMERIS_TYPE": 0,
    "CLASSIFICATION_TYPE": "U",
    "NORAD_CAT_ID": 52636,
    "ELEMENT_SET_NO": 999,
    "REV_AT_EPOCH": 19297,
    "BSTAR": 0.0,
    "MEAN_MOTION_DOT": -6.25e-06,
    "MEAN_MOTION_DDOT": 0.0,
    "TLE_LINE1": "1 52636U 22052AQ  25314.33996052 -.00000625  00000+0 -21188-4 0  9993",
    "TLE_LINE2": "2 52636  53.2153  84.8996 0001750  90.4227 269.6965 15.08839052192976",
    "COMMENT": "Grouped by shell and plane from TLE"
  }
]